    PJ98V24S  2008 05 24.7693  3.422534  0.241915  244.3856  159.1891    5.0267  20071027  13.0  2.0  P/1998 VS24 (LINEAR)
    PJ99W07J  2010 02  8.8831  3.183522  0.314272  154.5525  290.5636    2.9762  20071027  14.5  2.0  P/1999 WJ7 (Korlevic)
    PJ99XC0N  2008 11 13.0255  3.303687  0.210503  161.6993  285.4512    5.0263  20071027  13.5  2.0  P/1999 XN120 (Catalina)
    PK00B030  2008 02 26.0328  1.708733  0.574217  130.6385  352.0686   11.1178  20071027  16.0  4.0  P/2000 B3 (LINEAR)
    PK00U060  2008 02  7.3216  2.137900  0.433785   11.7166   24.3424   19.3794  20071027  13.5  4.0  P/2000 U6 (Tichy)
    PK00Y030  2011 12 27.3993  4.007687  0.198312   87.3774  354.6253    2.2535  20071027   9.0  4.0  P/2000 Y3 (Scotti)
    PK01C08V  2008 10 11.3808  2.159697  0.444315  151.6117  359.9031    9.0356  20071027  13.0  4.0  P/2001 CV8 (LINEAR)
    CK01Q040  2004 05 16.0856  0.964852  1.000989    1.2996  210.3103   99.5929  20071027   3.5  4.0  C/2001 Q4 (NEAT)
    PK01R010  2008 08  5.1638  1.345441  0.611636   24.9229   35.3128    7.0324  20071027  14.0  4.0  P/2001 R1 (LONEOS)
    PK01YC7X  2011 08 26.9569  3.428181  0.176353  115.1897   31.0663    7.9182  20071027  14.5  2.0  P/2001 YX127 (LINEAR)
    PK02CD4W  2009 01  5.9097  1.843409  0.488966  190.2674  348.2725   15.2132  20071027  13.0  4.0  P/2002 CW134 (LINEAR)
    CK02J050  2003 09 20.3767  5.738708  1.000318   75.0055  314.0860  117.2609  20071027  11.0  2.0  C/2002 J5 (LINEAR)
    CK02L090  2004 04  6.6608  7.034054  0.999559  231.4780  110.3918   68.4494  20071027   8.5  2.0  C/2002 L9 (NEAT)
    PK02L11Z  2010 03  6.9265  2.365064  0.352263  107.8532  231.1030   11.5227  20071027  11.0  4.0  P/2002 LZ11 (LINEAR)
    PK02O080  2010 06  7.0954  3.217790  0.200503  222.1202   75.4611   12.7890  20071027  11.0  4.0  P/2002 O8 (NEAT)
    CK02T070  2004 04 22.3686  0.618794  1.000454  158.0842   95.1454  160.5268  20071027   4.0  4.0  C/2002 T7 (LINEAR)
    CK02V94Q  2006 02  6.9599  6.797678  0.965166  100.0772   35.0076   70.5233  20071027   9.5  2.0  C/2002 VQ94 (LINEAR)
    CK03A020  2003 11  8.9123 11.431214  1.001469  346.8106  154.5655    8.0693  20071027   3.5  4.0  C/2003 A2 (Gleason)
    PK03C07P  2011 05 18.0814  3.026316  0.246810   42.8064  133.1125   12.3304  20071027  14.5  2.0  P/2003 CP7 (LINEAR-NEAT)
    PK03K02V  2008 05 18.2471  1.060517  0.629913  188.7844   66.3929   25.5532  20071027  16.5  2.0  P/2003 KV2 (LINEAR)
    CK03K040  2004 10 14.0421  1.023302  1.000681  198.4827   18.7031  134.2026  20071027   3.5  4.0  C/2003 K4 (LINEAR)
    PK03Q29X  2002 10 27.6162  4.233408  0.472715   37.2692  264.5146   11.4066  20071027   8.5  4.0  P/2003 QX29 (NEAT)
    CK03T040  2005 04  3.6829  0.851298  1.000536  181.6896   93.8697   86.7980  20071027   6.0  4.0  C/2003 T4 (LINEAR)
    CK03W42T  2006 04 10.7685  5.191530  1.001204   92.4906   48.4447   31.4141  20071027   9.0  2.0  C/2003 WT42 (LINEAR)
    PK04A010  2004 09  7.5806  5.483319  0.311536   21.9577  124.9813   10.5507  20071027   6.5  4.0  P/2004 A1 (LONEOS)
    CK04B010  2006 02  7.7711  1.602672  1.000963  327.9052  272.8064  114.1023  20071027  10.5  2.0  C/2004 B1 (LINEAR)
    CK04D010  2006 02 10.8235  4.975594  1.000141   75.5658   62.2509   45.5393  20071027  11.5  2.0  C/2004 D1 (NEAT)
    PK04D29O  2004 10  3.7961  4.091802  0.442724   41.2283  147.5101   14.4908  20071027  13.5  2.0  P/2004 DO29 (Spacewatch-LINEAR)
    PK04F030  2005 01  5.1475  2.867133  0.286637  176.3565   78.8185   15.9873  20071027   9.0  4.0  P/2004 F3 (NEAT)
    PK04FE0Y  2004 08  5.1375  4.108776  0.167442  239.7453  327.1850    2.1270  20071027  12.5  2.0  P/2004 FY140 (LINEAR)
    CK04K010  2005 07  5.2535  3.399302  0.998764   97.8052  326.9769  153.7476  20071027   7.0  4.0  C/2004 K1 (Catalina)
    CK04L020  2005 11 15.2849  3.778491  0.996025  257.3303   99.1658   62.5275  20071027   7.0  4.0  C/2004 L2 (LINEAR)
    CK04Q020  2005 01 23.9097  1.205150  0.998278   19.5460   93.4637   38.7253  20071027   5.5  4.0  C/2004 Q2 (Machholz)
    CK04T030  2003 04 17.3896  8.865640  1.001734  259.7444   50.3477   71.9640  20071027   2.5  4.0  C/2004 T3 (Siding Spring)
    PK04V050  2005 03  3.7831  4.422720  0.445921   88.1748   47.8555   19.3490  20071027   8.0  4.0  P/2004 V5 (LINEAR-Hill)
    CK05B010  2006 02 23.6116  3.204756  1.000780  103.1851  195.5593   92.5336  20071027   6.5  4.0  C/2005 B1 (Christensen)
    CK05E020  2006 02 23.5517  1.518235  1.000130   39.9543  347.8248   17.0006  20071027   5.5  4.0  C/2005 E2 (McNaught)
    CK05EH3L  2007 03  5.8272  3.886247  1.003317  261.4917  344.8049  130.6784  20071027  11.5  2.0  C/2005 EL173 (LONEOS)
    CK05G010  2006 02 27.6656  4.960733  1.000774  113.8459  299.5790  108.4244  20071027   8.0  4.0  C/2005 G1 (LINEAR)
    PK05JA8D  2005 08 11.2908  4.029657  0.375557   90.4236  224.3006    3.2752  20071027  10.0  4.0  P/2005 JD108 (Catalina-NEAT)
    PK05JC6Y  2006 02 21.4646  2.125675  0.433804  117.6120  207.9758   20.2325  20071027  11.5  4.0  P/2005 JY126 (Catalina)
    CK05K010  2005 11 21.0700  3.694126  1.002200  134.9610  106.3070   77.7580  20071027   7.0  4.0  C/2005 K1 (Skiff)
    PK05L010  2005 12 13.8874  3.144826  0.209169  149.7113  138.3205    7.7353  20071027   9.5  4.0  P/2005 L1 (McNaught)
    CK05L030  2008 01 15.7890  5.593348  1.000719   47.0708  288.7334  139.4448  20071027   4.0  4.0  C/2005 L3 (McNaught)
    CK05Q010  2005 08 24.7778  6.407315  1.002683   44.6491   87.7476  105.1957  20071027   6.0  4.0  C/2005 Q1 (LINEAR)
    PK05R020  2005 02 10.5077  2.126141  0.379394    3.0981  312.6985   10.2408  20071027  10.5  4.0  P/2005 R2 (Van Ness)
    CK05R040  2006 03  7.5052  5.187252  0.996838    6.8321   63.7718  164.0137  20071027   7.0  4.0  C/2005 R4 (LINEAR)
    PK05R25V  2006 11  6.7117  3.607468  0.166172  191.6025  246.9266    9.8832  20071027   9.5  4.0  P/2005 RV25 (LONEOS-Christensen)
    PK05S020  2006 06 27.5241  6.397758  0.197274  229.7378  161.2471    3.1404  20071027   7.5  4.0  P/2005 S2 (Skiff)
    CK05S040  2007 07 18.8517  5.850160  0.998953   31.4744  318.2909  107.9596  20071027   5.0  4.0  C/2005 S4 (McNaught)
    PK05SL6B  2007 02 11.2148  3.818238  0.463223   83.5593    1.6880   24.0993  20071027  12.0  2.0  P/2005 SB216 (LONEOS)
    PK05T030  2006 01 13.3583  6.202302  0.173821    8.2296   27.9947    6.2616             9.0  4.0  P/2005 T3 (Read)
    CK05Y00W  2006 12  7.9163  1.993363  0.989996  234.6826  302.1822   40.5641  20071027  10.0  4.0  C/2005 YW (LINEAR)
    PK05Y020  2004 12 28.7179  3.356560  0.467220  194.7210   94.5941   19.1789  20071027   9.0  4.0  P/2005 Y2 (McNaught)
    CK06A010  2006 02 22.1715  0.556048  0.999826  351.2186  211.3706   92.7094  20071027   9.0  3.2  C/2006 A1 (Pojmanski)
    CK06E010  2007 01  7.0194  6.040641  1.001939  232.8285   95.0330   83.1936  20071027   6.0  4.0  C/2006 E1 (McNaught)
    PK06F010  2008 02 19.2950  4.119464  0.121490  186.8013  124.7579   21.2627  20071027   8.0  4.0  P/2006 F1 (Kowalski)
    PK06H30R  2007 01  2.2688  1.226252  0.843037  117.4001  309.9525   31.8860  20071027  11.0  4.0  P/2006 HR30 (Siding Spring)
    CK06K010  2007 07 20.5801  4.425491  1.001681  296.4456   72.1158   53.8765  20071027   7.5  4.0  C/2006 K1 (McNaught)
    CK06K030  2007 03 13.3461  2.501357  1.000925  328.0686   49.4020   92.6164  20071027   8.0  4.0  C/2006 K3 (McNaught)
    CK06K040  2007 11 29.3278  3.188571  0.998055  233.6117  116.6024  111.3435  20071027   6.0  4.0  C/2006 K4 (NEAT)
    CK06L020  2006 11 20.2355  1.994189  1.001040   48.0503  239.2486  101.0199  20071027   9.0  4.0  C/2006 L2 (McNaught)
    CK06M010  2007 02 13.9454  3.556205  0.977343  122.8954  231.6165   54.8742  20071027   8.5  4.0  C/2006 M1 (LINEAR)
    CK06M040  2006 09 28.6922  0.783051  1.000054   62.5891  148.7273  111.8223  20071027   8.5  4.0  C/2006 M4 (SWAN)
    CK06O02F  2008 09 15.7002  2.431667  1.000599   95.6068  318.5095   30.1700  20071027   5.5  4.0  C/2006 OF2 (Broughton)
    CK06P010  2007 01 12.7716  0.170959  0.999999  155.9923  267.4085   77.8422  20071027   6.0  4.0  C/2006 P1 (McNaught)
    CK06Q010  2008 07  3.8154  2.763723  0.999975  344.3696  199.5504   59.0437  20071027   5.0  4.0  C/2006 Q1 (McNaught)
    PK06R020  2006 06 15.4796  3.039465  0.271164  188.9302  139.1422   16.3152  20071027  11.0  4.0  P/2006 R2 (Christensen)
    CK06S020  2007 05  7.3488  3.161432  1.002063  166.3423  113.8886   98.9751  20071027  10.0  4.0  C/2006 S2 (LINEAR)
    CK06S030  2012 04 17.3239  5.146154  0.999700  139.9791   38.3464  166.0332  20071027   2.0  4.0  C/2006 S3 (LONEOS)
    PK06S040  2006 06  1.7944  3.068168  0.508472  305.7347   36.1338   39.6254  20071027  11.0  4.0  P/2006 S4 (Christensen)
    CK06S050  2007 12  9.7517  2.630421  0.973017  182.1101  281.5630   10.1314  20071027   8.0  4.0  C/2006 S5 (Hill)
    PK06T010  2006 10  7.4184  0.990965  0.671926  179.5492  279.7798   18.3287  20071027  10.5  4.0  P/2006 T1 (Levy)
    PK06U050  2007 01 18.8293  2.325785  0.340881   98.3695    5.0928    3.4307  20071027  12.5  4.0  P/2006 U5 (Christensen)
    CK06U060  2008 06  5.4600  2.498368  0.998721  276.5945  180.1877   84.8793  20071027   8.0  4.0  C/2006 U6 (Spacewatch)
    CK06U070  2007 03 28.8973  4.423228  0.631419   13.0244   57.7603    7.2267  20071027  11.0  4.0  C/2006 U7 (Gibbs)
    CK06V010  2007 11 26.5532  2.674926  0.989543  253.4092  335.7234   31.1193  20071027   8.0  4.0  C/2006 V1 (Catalina)
    CK06V13Z  2007 08 10.8895  1.015240  1.000249  174.1144   66.0275  134.7932  20071027  10.5  4.0  C/2006 VZ13 (LINEAR)
    CK06W030  2009 07  6.4687  3.127068  1.000349  133.4758  113.5662  127.0715  20071027   5.0  4.0  C/2006 W3 (Christensen)
    CK06X010  2006 03  5.9362  6.126114  1.000681  101.2960  255.2421   42.6178  20071027   7.0  4.0  C/2006 X1 (LINEAR)
    CK06X01A  2007 07 21.9017  1.804364  0.992627  187.4207  318.6624   30.6306  20071027  10.0  4.0  C/2006 XA1 (LINEAR)
